{
  "type": "FeatureCollection",
  "features": [
    {
      "type": "Feature",
      "properties": {
        "norad_id": 66719,
        "name": "FLOCK 4H-16",
        "group": "last-30-days",
        "lat": -60.51014463974528,
        "lon": -120.17120119801953,
        "alt_km": 518.9176165471235,
        "timestamp": "2025-12-27T16:33:28.972152+00:00",
        "meta_object_name": "FLOCK 4H-16",
        "meta_object_id": "2025-276BF",
        "meta_epoch": "2025-12-27T12:00:02.000160",
        "meta_mean_motion": 15.17249858,
        "meta_eccentricity": 0.0003525,
        "meta_inclination": 97.4429,
        "meta_ra_of_asc_node": 73.0076,
        "meta_arg_of_pericenter": 229.3539,
        "meta_mean_anomaly": 55.3836,
        "meta_ephemeris_type": 0,
        "meta_classification_type": "U",
        "meta_norad_cat_id": 66719,
        "meta_element_set_no": 999,
        "meta_rev_at_epoch": 378,
        "meta_bstar": 0.0020972,
        "meta_mean_motion_dot": 0.0004188,
        "meta_mean_motion_ddot": 0,
        "tle_line1": "1 66719U 25276BF  25361.50002315  .00041880  00000+0  20972-2 0  9996",
        "tle_line2": "2 66719  97.4429  73.0076 0003525 229.3539  55.3836 15.17249858  3785"
      },
      "geometry": {
        "type": "Point",
        "coordinates": [
          -120.17120119801953,
          -60.51014463974528
        ]
      }
    },
    {
      "type": "Feature",
      "properties": {
        "norad_id": 66720,
        "name": "FLOCK 4H-17",
        "group": "last-30-days",
        "lat": -33.41055193058878,
        "lon": 78.18060467134462,
        "alt_km": 519.6894181511125,
        "timestamp": "2025-12-27T16:33:28.972161+00:00",
        "meta_object_name": "FLOCK 4H-17",
        "meta_object_id": "2025-276BG",
        "meta_epoch": "2025-12-27T12:00:02.000160",
        "meta_mean_motion": 15.18096235,
        "meta_eccentricity": 0.0003196,
        "meta_inclination": 97.4433,
        "meta_ra_of_asc_node": 73.0465,
        "meta_arg_of_pericenter": 176.6023,
        "meta_mean_anomaly": 192.6034,
        "meta_ephemeris_type": 0,
        "meta_classification_type": "U",
        "meta_norad_cat_id": 66720,
        "meta_element_set_no": 999,
        "meta_rev_at_epoch": 177,
        "meta_bstar": 0.0025325,
        "meta_mean_motion_dot": 0.00051898,
        "meta_mean_motion_ddot": 0,
        "tle_line1": "1 66720U 25276BG  25361.50002315  .00051898  00000+0  25325-2 0  9995",
        "tle_line2": "2 66720  97.4433  73.0465 0003196 176.6023 192.6034 15.18096235  1772"
      },
      "geometry": {
        "type": "Point",
        "coordinates": [
          78.18060467134462,
          -33.41055193058878
        ]
      }
    },
    {
      "type": "Feature",
      "properties": {
        "norad_id": 66721,
        "name": "FLOCK 4H-18",
        "group": "last-30-days",
        "lat": -53.11174318556533,
        "lon": -116.85620808247509,
        "alt_km": 519.7863465824466,
        "timestamp": "2025-12-27T16:33:28.972171+00:00",
        "meta_object_name": "FLOCK 4H-18",
        "meta_object_id": "2025-276BH",
        "meta_epoch": "2025-12-27T12:21:54.631296",
        "meta_mean_motion": 15.17192319,
        "meta_eccentricity": 0.0002484,
        "meta_inclination": 97.4375,
        "meta_ra_of_asc_node": 72.9964,
        "meta_arg_of_pericenter": 257.9479,
        "meta_mean_anomaly": 102.1476,
        "meta_ephemeris_type": 0,
        "meta_classification_type": "U",
        "meta_norad_cat_id": 66721,
        "meta_element_set_no": 999,
        "meta_rev_at_epoch": 436,
        "meta_bstar": 0.00032089,
        "meta_mean_motion_dot": 6.31e-05,
        "meta_mean_motion_ddot": 0,
        "tle_line1": "1 66721U 25276BH  25361.51521564  .00006310  00000+0  32089-3 0  9994",
        "tle_line2": "2 66721  97.4375  72.9964 0002484 257.9479 102.1476 15.17192319  4360"
      },
      "geometry": {
        "type": "Point",
        "coordinates": [
          -116.85620808247509,
          -53.11174318556533
        ]
      }
    },
    {
      "type": "Feature",
      "properties": {
        "norad_id": 66722,
        "name": "FLOCK 4H-19",
        "group": "last-30-days",
        "lat": -14.531311942993439,
        "lon": 75.15781666866357,
        "alt_km": 517.1428899109242,
        "timestamp": "2025-12-27T16:33:28.972181+00:00",
        "meta_object_name": "FLOCK 4H-19",
        "meta_object_id": "2025-276BJ",
        "meta_epoch": "2025-12-27T10:17:45.339072",
        "meta_mean_motion": 15.18378311,
        "meta_eccentricity": 0.0002614,
        "meta_inclination": 97.4379,
        "meta_ra_of_asc_node": 72.9607,
        "meta_arg_of_pericenter": 143.9938,
        "meta_mean_anomaly": 216.1473,
        "meta_ephemeris_type": 0,
        "meta_classification_type": "U",
        "meta_norad_cat_id": 66722,
        "meta_element_set_no": 999,
        "meta_rev_at_epoch": 364,
        "meta_bstar": 0.0008834,
        "meta_mean_motion_dot": 0.00018122,
        "meta_mean_motion_ddot": 0,
        "tle_line1": "1 66722U 25276BJ  25361.42899698  .00018122  00000+0  88340-3 0  9996",
        "tle_line2": "2 66722  97.4379  72.9607 0002614 143.9938 216.1473 15.18378311  3640"
      },
      "geometry": {
        "type": "Point",
        "coordinates": [
          75.15781666866357,
          -14.531311942993439
        ]
      }
    },
    {
      "type": "Feature",
      "properties": {
        "norad_id": 66723,
        "name": "FLOCK 4H-20",
        "group": "last-30-days",
        "lat": -10.509336499589809,
        "lon": 74.62427398059727,
        "alt_km": 517.1894254039553,
        "timestamp": "2025-12-27T16:33:28.972191+00:00",
        "meta_object_name": "FLOCK 4H-20",
        "meta_object_id": "2025-276BK",
        "meta_epoch": "2025-12-27T11:51:35.074944",
        "meta_mean_motion": 15.18384655,
        "meta_eccentricity": 0.0003171,
        "meta_inclination": 97.4415,
        "meta_ra_of_asc_node": 73.0423,
        "meta_arg_of_pericenter": 157.8408,
        "meta_mean_anomaly": 202.2964,
        "meta_ephemeris_type": 0,
        "meta_classification_type": "U",
        "meta_norad_cat_id": 66723,
        "meta_element_set_no": 999,
        "meta_rev_at_epoch": 361,
        "meta_bstar": 0.00053718,
        "meta_mean_motion_dot": 0.00010985,
        "meta_mean_motion_ddot": 0,
        "tle_line1": "1 66723U 25276BK  25361.49415596  .00010985  00000+0  53718-3 0  9995",
        "tle_line2": "2 66723  97.4415  73.0423 0003171 157.8408 202.2964 15.18384655  3611"
      },
      "geometry": {
        "type": "Point",
        "coordinates": [
          74.62427398059727,
          -10.509336499589809
        ]
      }
    },
    {
      "type": "Feature",
      "properties": {
        "norad_id": 66724,
        "name": "FLOCK 4H-21",
        "group": "last-30-days",
        "lat": -6.792598196280898,
        "lon": 74.1113812150224,
        "alt_km": 516.5296204750675,
        "timestamp": "2025-12-27T16:33:28.972201+00:00",
        "meta_object_name": "FLOCK 4H-21",
        "meta_object_id": "2025-276BL",
        "meta_epoch": "2025-12-27T12:00:02.000160",
        "meta_mean_motion": 15.18392618,
        "meta_eccentricity": 0.000296,
        "meta_inclination": 97.4381,
        "meta_ra_of_asc_node": 73.033,
        "meta_arg_of_pericenter": 158.4497,
        "meta_mean_anomaly": 237.4782,
        "meta_ephemeris_type": 0,
        "meta_classification_type": "U",
        "meta_norad_cat_id": 66724,
        "meta_element_set_no": 999,
        "meta_rev_at_epoch": 379,
        "meta_bstar": 0.0026166,
        "meta_mean_motion_dot": 0.00054096,
        "meta_mean_motion_ddot": 0,
        "tle_line1": "1 66724U 25276BL  25361.50002315  .00054096  00000+0  26166-2 0  9996",
        "tle_line2": "2 66724  97.4381  73.0330 0002960 158.4497 237.4782 15.18392618  3796"
      },
      "geometry": {
        "type": "Point",
        "coordinates": [
          74.1113812150224,
          -6.792598196280898
        ]
      }
    },
    {
      "type": "Feature",
      "properties": {
        "norad_id": 66725,
        "name": "FLOCK 4H-22",
        "group": "last-30-days",
        "lat": -81.2119439739845,
        "lon": -164.48919623167808,
        "alt_km": 519.5596285901584,
        "timestamp": "2025-12-27T16:33:28.972212+00:00",
        "meta_object_name": "FLOCK 4H-22",
        "meta_object_id": "2025-276BM",
        "meta_epoch": "2025-12-27T10:38:41.252064",
        "meta_mean_motion": 15.17551101,
        "meta_eccentricity": 0.0001517,
        "meta_inclination": 97.437,
        "meta_ra_of_asc_node": 72.9355,
        "meta_arg_of_pericenter": 261.1627,
        "meta_mean_anomaly": 98.9435,
        "meta_ephemeris_type": 0,
        "meta_classification_type": "U",
        "meta_norad_cat_id": 66725,
        "meta_element_set_no": 999,
        "meta_rev_at_epoch": 435,
        "meta_bstar": 0.00033136,
        "meta_mean_motion_dot": 6.586e-05,
        "meta_mean_motion_ddot": 0,
        "tle_line1": "1 66725U 25276BM  25361.44353301  .00006586  00000+0  33136-3 0  9991",
        "tle_line2": "2 66725  97.4370  72.9355 0001517 261.1627  98.9435 15.17551101  4355"
      },
      "geometry": {
        "type": "Point",
        "coordinates": [
          -164.48919623167808,
          -81.2119439739845
        ]
      }
    }
  ]
}